[{"OBJECT_NAME":"OBJECT V","OBJECT_ID":"2023-085V","EPOCH":"2026-03-09T21:44:00.165408","MEAN_MOTION":15.30745852,"ECCENTRICITY":0.00069081,"INCLINATION":97.4843,"RA_OF_ASC_NODE":179.3833,"ARG_OF_PERICENTER":71.0503,"MEAN_ANOMALY":289.1485,"EPHEMERIS_TYPE":0,"CLASSIFICATION_TYPE":"U","NORAD_CAT_ID":57023,"ELEMENT_SET_NO":999,"REV_AT_EPOCH":15149,"BSTAR":0.00067780507,"MEAN_MOTION_DOT":0.00020109,"MEAN_MOTION_DDOT":0},{"OBJECT_NAME":"STARLINK-35319","OBJECT_ID":"2025-216K","EPOCH":"2026-03-09T22:04:51.570912","MEAN_MOTION":15.30218816,"ECCENTRICITY":0.00014025,"INCLINATION":53.1603,"RA_OF_ASC_NODE":331.4815,"ARG_OF_PERICENTER":81.3129,"MEAN_ANOMALY":278.8031,"EPHEMERIS_TYPE":0,"CLASSIFICATION_TYPE":"U","NORAD_CAT_ID":65743,"ELEMENT_SET_NO":999,"REV_AT_EPOCH":2663,"BSTAR":0.00099170095,"MEAN_MOTION_DOT":0.00029145,"MEAN_MOTION_DDOT":0}]
